<?xml version="1.0" encoding="UTF-8"?>
<ndm xmlns:xsi="http://www.w3.org/2001/XMLSchema-instance" xsi:noNamespaceSchemaLocation="https://sanaregistry.org/r/ndmxml_unqualified/ndmxml-2.0.0-master-2.0.xsd">
<omm id="CCSDS_OMM_VERS" version="2.0">
<header><CREATION_DATE/><ORIGINATOR/></header><body><segment><metadata><OBJECT_NAME>ORBCOMM-X</OBJECT_NAME><OBJECT_ID>1991-050C</OBJECT_ID><CENTER_NAME>EARTH</CENTER_NAME><REF_FRAME>TEME</REF_FRAME><TIME_SYSTEM>UTC</TIME_SYSTEM><MEAN_ELEMENT_THEORY>SGP4</MEAN_ELEMENT_THEORY></metadata><data><meanElements><EPOCH>2024-05-09T10:37:34.343040</EPOCH><MEAN_MOTION>14.42484286</MEAN_MOTION><ECCENTRICITY>.0003014</ECCENTRICITY><INCLINATION>98.3912</INCLINATION><RA_OF_ASC_NODE>198.2886</RA_OF_ASC_NODE><ARG_OF_PERICENTER>346.2982</ARG_OF_PERICENTER><MEAN_ANOMALY>13.8125</MEAN_ANOMALY></meanElements><tleParameters><EPHEMERIS_TYPE>0</EPHEMERIS_TYPE><CLASSIFICATION_TYPE>U</CLASSIFICATION_TYPE><NORAD_CAT_ID>21576</NORAD_CAT_ID><ELEMENT_SET_NO>999</ELEMENT_SET_NO><REV_AT_EPOCH>72411</REV_AT_EPOCH><BSTAR>.19863E-3</BSTAR><MEAN_MOTION_DOT>.615E-5</MEAN_MOTION_DOT><MEAN_MOTION_DDOT>0</MEAN_MOTION_DDOT></tleParameters></data></segment></body></omm>
<omm id="CCSDS_OMM_VERS" version="2.0">
<header><CREATION_DATE/><ORIGINATOR/></header><body><segment><metadata><OBJECT_NAME>ORBCOMM FM01</OBJECT_NAME><OBJECT_ID>1995-017A</OBJECT_ID><CENTER_NAME>EARTH</CENTER_NAME><REF_FRAME>TEME</REF_FRAME><TIME_SYSTEM>UTC</TIME_SYSTEM><MEAN_ELEMENT_THEORY>SGP4</MEAN_ELEMENT_THEORY></metadata><data><meanElements><EPOCH>2024-05-08T22:45:39.845376</EPOCH><MEAN_MOTION>14.79894829</MEAN_MOTION><ECCENTRICITY>.0008247</ECCENTRICITY><INCLINATION>69.9683</INCLINATION><RA_OF_ASC_NODE>354.2684</RA_OF_ASC_NODE><ARG_OF_PERICENTER>227.5992</ARG_OF_PERICENTER><MEAN_ANOMALY>132.4460</MEAN_ANOMALY></meanElements><tleParameters><EPHEMERIS_TYPE>0</EPHEMERIS_TYPE><CLASSIFICATION_TYPE>U</CLASSIFICATION_TYPE><NORAD_CAT_ID>23545</NORAD_CAT_ID><ELEMENT_SET_NO>999</ELEMENT_SET_NO><REV_AT_EPOCH>55249</REV_AT_EPOCH><BSTAR>.77976E-3</BSTAR><MEAN_MOTION_DOT>.5822E-4</MEAN_MOTION_DOT><MEAN_MOTION_DDOT>0</MEAN_MOTION_DDOT></tleParameters></data></segment></body></omm>
<omm id="CCSDS_OMM_VERS" version="2.0">
<header><CREATION_DATE/><ORIGINATOR/></header><body><segment><metadata><OBJECT_NAME>ORBCOMM FM02</OBJECT_NAME><OBJECT_ID>1995-017B</OBJECT_ID><CENTER_NAME>EARTH</CENTER_NAME><REF_FRAME>TEME</REF_FRAME><TIME_SYSTEM>UTC</TIME_SYSTEM><MEAN_ELEMENT_THEORY>SGP4</MEAN_ELEMENT_THEORY></metadata><data><meanElements><EPOCH>2024-05-09T02:41:34.636416</EPOCH><MEAN_MOTION>14.79489169</MEAN_MOTION><ECCENTRICITY>.0009962</ECCENTRICITY><INCLINATION>69.9712</INCLINATION><RA_OF_ASC_NODE>13.2878</RA_OF_ASC_NODE><ARG_OF_PERICENTER>220.7755</ARG_OF_PERICENTER><MEAN_ANOMALY>139.2650</MEAN_ANOMALY></meanElements><tleParameters><EPHEMERIS_TYPE>0</EPHEMERIS_TYPE><CLASSIFICATION_TYPE>U</CLASSIFICATION_TYPE><NORAD_CAT_ID>23546</NORAD_CAT_ID><ELEMENT_SET_NO>999</ELEMENT_SET_NO><REV_AT_EPOCH>55246</REV_AT_EPOCH><BSTAR>.11049E-2</BSTAR><MEAN_MOTION_DOT>.8208E-4</MEAN_MOTION_DOT><MEAN_MOTION_DDOT>0</MEAN_MOTION_DDOT></tleParameters></data></segment></body></omm>
<omm id="CCSDS_OMM_VERS" version="2.0">
<header><CREATION_DATE/><ORIGINATOR/></header><body><segment><metadata><OBJECT_NAME>ORBCOMM FM08</OBJECT_NAME><OBJECT_ID>1997-084A</OBJECT_ID><CENTER_NAME>EARTH</CENTER_NAME><REF_FRAME>TEME</REF_FRAME><TIME_SYSTEM>UTC</TIME_SYSTEM><MEAN_ELEMENT_THEORY>SGP4</MEAN_ELEMENT_THEORY></metadata><data><meanElements><EPOCH>2024-05-09T06:55:26.107968</EPOCH><MEAN_MOTION>14.42507816</MEAN_MOTION><ECCENTRICITY>.0008022</ECCENTRICITY><INCLINATION>45.0138</INCLINATION><RA_OF_ASC_NODE>141.9382</RA_OF_ASC_NODE><ARG_OF_PERICENTER>354.0541</ARG_OF_PERICENTER><MEAN_ANOMALY>6.0212</MEAN_ANOMALY></meanElements><tleParameters><EPHEMERIS_TYPE>0</EPHEMERIS_TYPE><CLASSIFICATION_TYPE>U</CLASSIFICATION_TYPE><NORAD_CAT_ID>25112</NORAD_CAT_ID><ELEMENT_SET_NO>999</ELEMENT_SET_NO><REV_AT_EPOCH>38315</REV_AT_EPOCH><BSTAR>.69364E-3</BSTAR><MEAN_MOTION_DOT>.2179E-4</MEAN_MOTION_DOT><MEAN_MOTION_DDOT>0</MEAN_MOTION_DDOT></tleParameters></data></segment></body></omm>
<omm id="CCSDS_OMM_VERS" version="2.0">
<header><CREATION_DATE/><ORIGINATOR/></header><body><segment><metadata><OBJECT_NAME>ORBCOMM FM10</OBJECT_NAME><OBJECT_ID>1997-084B</OBJECT_ID><CENTER_NAME>EARTH</CENTER_NAME><REF_FRAME>TEME</REF_FRAME><TIME_SYSTEM>UTC</TIME_SYSTEM><MEAN_ELEMENT_THEORY>SGP4</MEAN_ELEMENT_THEORY></metadata><data><meanElements><EPOCH>2024-05-08T17:47:23.763264</EPOCH><MEAN_MOTION>14.42417278</MEAN_MOTION><ECCENTRICITY>.0006616</ECCENTRICITY><INCLINATION>45.0150</INCLINATION><RA_OF_ASC_NODE>146.4053</RA_OF_ASC_NODE><ARG_OF_PERICENTER>322.8310</ARG_OF_PERICENTER><MEAN_ANOMALY>37.2082</MEAN_ANOMALY></meanElements><tleParameters><EPHEMERIS_TYPE>0</EPHEMERIS_TYPE><CLASSIFICATION_TYPE>U</CLASSIFICATION_TYPE><NORAD_CAT_ID>25113</NORAD_CAT_ID><ELEMENT_SET_NO>999</ELEMENT_SET_NO><REV_AT_EPOCH>55805</REV_AT_EPOCH><BSTAR>.63327E-3</BSTAR><MEAN_MOTION_DOT>.1972E-4</MEAN_MOTION_DOT><MEAN_MOTION_DDOT>0</MEAN_MOTION_DDOT></tleParameters></data></segment></body></omm>
<omm id="CCSDS_OMM_VERS" version="2.0">
<header><CREATION_DATE/><ORIGINATOR/></header><body><segment><metadata><OBJECT_NAME>ORBCOMM FM11</OBJECT_NAME><OBJECT_ID>1997-084C</OBJECT_ID><CENTER_NAME>EARTH</CENTER_NAME><REF_FRAME>TEME</REF_FRAME><TIME_SYSTEM>UTC</TIME_SYSTEM><MEAN_ELEMENT_THEORY>SGP4</MEAN_ELEMENT_THEORY></metadata><data><meanElements><EPOCH>2024-05-09T10:51:31.241952</EPOCH><MEAN_MOTION>14.42303966</MEAN_MOTION><ECCENTRICITY>.0007347</ECCENTRICITY><INCLINATION>45.0136</INCLINATION><RA_OF_ASC_NODE>143.0773</RA_OF_ASC_NODE><ARG_OF_PERICENTER>327.8579</ARG_OF_PERICENTER><MEAN_ANOMALY>32.1823</MEAN_ANOMALY></meanElements><tleParameters><EPHEMERIS_TYPE>0</EPHEMERIS_TYPE><CLASSIFICATION_TYPE>U</CLASSIFICATION_TYPE><NORAD_CAT_ID>25114</NORAD_CAT_ID><ELEMENT_SET_NO>999</ELEMENT_SET_NO><REV_AT_EPOCH>38315</REV_AT_EPOCH><BSTAR>.68044E-3</BSTAR><MEAN_MOTION_DOT>.2125E-4</MEAN_MOTION_DOT><MEAN_MOTION_DDOT>0</MEAN_MOTION_DDOT></tleParameters></data></segment></body></omm>
<omm id="CCSDS_OMM_VERS" version="2.0">
<header><CREATION_DATE/><ORIGINATOR/></header><body><segment><metadata><OBJECT_NAME>ORBCOMM FM12</OBJECT_NAME><OBJECT_ID>1997-084D</OBJECT_ID><CENTER_NAME>EARTH</CENTER_NAME><REF_FRAME>TEME</REF_FRAME><TIME_SYSTEM>UTC</TIME_SYSTEM><MEAN_ELEMENT_THEORY>SGP4</MEAN_ELEMENT_THEORY></metadata><data><meanElements><EPOCH>2024-05-08T17:16:12.958752</EPOCH><MEAN_MOTION>14.42257294</MEAN_MOTION><ECCENTRICITY>.0006406</ECCENTRICITY><INCLINATION>45.0143</INCLINATION><RA_OF_ASC_NODE>146.2712</RA_OF_ASC_NODE><ARG_OF_PERICENTER>322.6600</ARG_OF_PERICENTER><MEAN_ANOMALY>37.3804</MEAN_ANOMALY></meanElements><tleParameters><EPHEMERIS_TYPE>0</EPHEMERIS_TYPE><CLASSIFICATION_TYPE>U</CLASSIFICATION_TYPE><NORAD_CAT_ID>25115</NORAD_CAT_ID><ELEMENT_SET_NO>999</ELEMENT_SET_NO><REV_AT_EPOCH>38281</REV_AT_EPOCH><BSTAR>.60393E-3</BSTAR><MEAN_MOTION_DOT>.1868E-4</MEAN_MOTION_DOT><MEAN_MOTION_DDOT>0</MEAN_MOTION_DDOT></tleParameters></data></segment></body></omm>
<omm id="CCSDS_OMM_VERS" version="2.0">
<header><CREATION_DATE/><ORIGINATOR/></header><body><segment><metadata><OBJECT_NAME>ORBCOMM FM09</OBJECT_NAME><OBJECT_ID>1997-084E</OBJECT_ID><CENTER_NAME>EARTH</CENTER_NAME><REF_FRAME>TEME</REF_FRAME><TIME_SYSTEM>UTC</TIME_SYSTEM><MEAN_ELEMENT_THEORY>SGP4</MEAN_ELEMENT_THEORY></metadata><data><meanElements><EPOCH>2024-05-09T08:30:09.657216</EPOCH><MEAN_MOTION>14.42226978</MEAN_MOTION><ECCENTRICITY>.0007704</ECCENTRICITY><INCLINATION>45.0147</INCLINATION><RA_OF_ASC_NODE>143.9279</RA_OF_ASC_NODE><ARG_OF_PERICENTER>316.5176</ARG_OF_PERICENTER><MEAN_ANOMALY>43.5066</MEAN_ANOMALY></meanElements><tleParameters><EPHEMERIS_TYPE>0</EPHEMERIS_TYPE><CLASSIFICATION_TYPE>U</CLASSIFICATION_TYPE><NORAD_CAT_ID>25116</NORAD_CAT_ID><ELEMENT_SET_NO>999</ELEMENT_SET_NO><REV_AT_EPOCH>38314</REV_AT_EPOCH><BSTAR>.66577E-3</BSTAR><MEAN_MOTION_DOT>.2072E-4</MEAN_MOTION_DOT><MEAN_MOTION_DDOT>0</MEAN_MOTION_DDOT></tleParameters></data></segment></body></omm>

</ndm>
