ORBCOMM-X               
1 21576U 91050C   24130.44275860  .00000615  00000+0  19863-3 0  9993
2 21576  98.3912 198.2886 0003014 346.2982  13.8125 14.42484286724117
ORBCOMM FM01            
1 23545U 95017A   24129.94837784  .00005822  00000+0  77976-3 0  9994
2 23545  69.9683 354.2684 0008247 227.5992 132.4460 14.79894829552497
ORBCOMM FM02            
1 23546U 95017B   24130.11220644  .00008208  00000+0  11049-2 0  9996
2 23546  69.9712  13.2878 0009962 220.7755 139.2650 14.79489169552465
ORBCOMM FM08            
1 25112U 97084A   24130.28849662  .00002179  00000+0  69364-3 0  9993
2 25112  45.0138 141.9382 0008022 354.0541   6.0212 14.42507816383155
ORBCOMM FM10            
1 25113U 97084B   24129.74124726  .00001972  00000+0  63327-3 0  9993
2 25113  45.0150 146.4053 0006616 322.8310  37.2082 14.42417278558055
ORBCOMM FM11            
1 25114U 97084C   24130.45244493  .00002125  00000+0  68044-3 0  9990
2 25114  45.0136 143.0773 0007347 327.8579  32.1823 14.42303966383158
ORBCOMM FM12            
1 25115U 97084D   24129.71959443  .00001868  00000+0  60393-3 0  9998
2 25115  45.0143 146.2712 0006406 322.6600  37.3804 14.42257294382818
ORBCOMM FM09            
1 25116U 97084E   24130.35427844  .00002072  00000+0  66577-3 0  9994
2 25116  45.0147 143.9279 0007704 316.5176  43.5066 14.42226978383148
